CCSDS_OMM_VERS = 2.0
CREATION_DATE  = 
ORIGINATOR     = 

OBJECT_NAME    = SL-3 R/B
OBJECT_ID      = 1982-079B
CENTER_NAME    = EARTH
REF_FRAME      = TEME
TIME_SYSTEM    = UTC
MEAN_ELEMENT_THEORY = SGP/SGP4

EPOCH          = 2025-12-30T19:20:32.403840
MEAN_MOTION    = 15.23826348
ECCENTRICITY   = .0026532
INCLINATION    = 81.1475
RA_OF_ASC_NODE = 274.3631
ARG_OF_PERICENTER = 40.9445
MEAN_ANOMALY   = 319.3774

EPHEMERIS_TYPE = 0
CLASSIFICATION_TYPE = U
NORAD_CAT_ID   = 13403
ELEMENT_SET_NO = 999
REV_AT_EPOCH   = 36720
BSTAR          = .36255E-3
MEAN_MOTION_DOT = .8849E-4
MEAN_MOTION_DDOT = 0

CCSDS_OMM_VERS = 2.0
CREATION_DATE  = 
ORIGINATOR     = 

OBJECT_NAME    = SL-14 R/B
OBJECT_ID      = 1982-092B
CENTER_NAME    = EARTH
REF_FRAME      = TEME
TIME_SYSTEM    = UTC
MEAN_ELEMENT_THEORY = SGP/SGP4

EPOCH          = 2025-12-30T15:40:28.552800
MEAN_MOTION    = 14.86574879
ECCENTRICITY   = .0020638
INCLINATION    = 82.5668
RA_OF_ASC_NODE = 205.9584
ARG_OF_PERICENTER = 166.1915
MEAN_ANOMALY   = 257.9015

EPHEMERIS_TYPE = 0
CLASSIFICATION_TYPE = U
NORAD_CAT_ID   = 13553
ELEMENT_SET_NO = 999
REV_AT_EPOCH   = 31867
BSTAR          = .87455E-4
MEAN_MOTION_DOT = .802E-5
MEAN_MOTION_DDOT = 0

CCSDS_OMM_VERS = 2.0
CREATION_DATE  = 
ORIGINATOR     = 

OBJECT_NAME    = SL-3 R/B
OBJECT_ID      = 1983-010B
CENTER_NAME    = EARTH
REF_FRAME      = TEME
TIME_SYSTEM    = UTC
MEAN_ELEMENT_THEORY = SGP/SGP4

EPOCH          = 2025-12-30T17:27:01.933344
MEAN_MOTION    = 15.43998129
ECCENTRICITY   = .0016318
INCLINATION    = 81.1049
RA_OF_ASC_NODE = 86.6555
ARG_OF_PERICENTER = 286.8117
MEAN_ANOMALY   = 73.1337

EPHEMERIS_TYPE = 0
CLASSIFICATION_TYPE = U
NORAD_CAT_ID   = 13819
ELEMENT_SET_NO = 999
REV_AT_EPOCH   = 34729
BSTAR          = .43868E-3
MEAN_MOTION_DOT = .2014E-3
MEAN_MOTION_DDOT = 0

CCSDS_OMM_VERS = 2.0
CREATION_DATE  = 
ORIGINATOR     = 

OBJECT_NAME    = SL-3 R/B
OBJECT_ID      = 1983-075B
CENTER_NAME    = EARTH
REF_FRAME      = TEME
TIME_SYSTEM    = UTC
MEAN_ELEMENT_THEORY = SGP/SGP4

EPOCH          = 2025-12-30T18:20:04.416000
MEAN_MOTION    = 15.36539710
ECCENTRICITY   = .0024376
INCLINATION    = 97.6108
RA_OF_ASC_NODE = 1.8577
ARG_OF_PERICENTER = 113.9532
MEAN_ANOMALY   = 246.4268

EPHEMERIS_TYPE = 0
CLASSIFICATION_TYPE = U
NORAD_CAT_ID   = 14208
ELEMENT_SET_NO = 999
REV_AT_EPOCH   = 31956
BSTAR          = .45383E-3
MEAN_MOTION_DOT = .16274E-3
MEAN_MOTION_DDOT = 0

CCSDS_OMM_VERS = 2.0
CREATION_DATE  = 
ORIGINATOR     = 

OBJECT_NAME    = COSMOS 1536
OBJECT_ID      = 1984-013A
CENTER_NAME    = EARTH
REF_FRAME      = TEME
TIME_SYSTEM    = UTC
MEAN_ELEMENT_THEORY = SGP/SGP4

EPOCH          = 2025-12-30T13:12:25.207200
MEAN_MOTION    = 15.22752605
ECCENTRICITY   = .0014941
INCLINATION    = 82.5446
RA_OF_ASC_NODE = 176.4980
ARG_OF_PERICENTER = 161.3947
MEAN_ANOMALY   = 198.7839

EPHEMERIS_TYPE = 0
CLASSIFICATION_TYPE = U
NORAD_CAT_ID   = 14699
ELEMENT_SET_NO = 999
REV_AT_EPOCH   = 26209
BSTAR          = .46386E-3
MEAN_MOTION_DOT = .10894E-3
MEAN_MOTION_DDOT = 0

CCSDS_OMM_VERS = 2.0
CREATION_DATE  = 
ORIGINATOR     = 

OBJECT_NAME    = SL-14 R/B
OBJECT_ID      = 1984-027B
CENTER_NAME    = EARTH
REF_FRAME      = TEME
TIME_SYSTEM    = UTC
MEAN_ELEMENT_THEORY = SGP/SGP4

EPOCH          = 2025-12-30T19:19:24.305088
MEAN_MOTION    = 14.85896408
ECCENTRICITY   = .0017387
INCLINATION    = 82.5427
RA_OF_ASC_NODE = 309.6151
ARG_OF_PERICENTER = 196.8224
MEAN_ANOMALY   = 163.2418

EPHEMERIS_TYPE = 0
CLASSIFICATION_TYPE = U
NORAD_CAT_ID   = 14820
ELEMENT_SET_NO = 999
REV_AT_EPOCH   = 23740
BSTAR          = .96645E-4
MEAN_MOTION_DOT = .868E-5
MEAN_MOTION_DDOT = 0

CCSDS_OMM_VERS = 2.0
CREATION_DATE  = 
ORIGINATOR     = 

OBJECT_NAME    = SL-8 R/B
OBJECT_ID      = 1985-006B
CENTER_NAME    = EARTH
REF_FRAME      = TEME
TIME_SYSTEM    = UTC
MEAN_ELEMENT_THEORY = SGP/SGP4

EPOCH          = 2025-12-30T13:48:29.183328
MEAN_MOTION    = 14.37733729
ECCENTRICITY   = .0019426
INCLINATION    = 74.0458
RA_OF_ASC_NODE = 28.3190
ARG_OF_PERICENTER = 317.0995
MEAN_ANOMALY   = 160.5102

EPHEMERIS_TYPE = 0
CLASSIFICATION_TYPE = U
NORAD_CAT_ID   = 15483
ELEMENT_SET_NO = 999
REV_AT_EPOCH   = 14409
BSTAR          = .17405E-3
MEAN_MOTION_DOT = .498E-5
MEAN_MOTION_DDOT = 0

CCSDS_OMM_VERS = 2.0
CREATION_DATE  = 
ORIGINATOR     = 

OBJECT_NAME    = SL-12 R/B(2)
OBJECT_ID      = 1985-042D
CENTER_NAME    = EARTH
REF_FRAME      = TEME
TIME_SYSTEM    = UTC
MEAN_ELEMENT_THEORY = SGP/SGP4

EPOCH          = 2025-12-30T19:51:20.483424
MEAN_MOTION    = 14.21957526
ECCENTRICITY   = .0037112
INCLINATION    = 71.1067
RA_OF_ASC_NODE = 233.2093
ARG_OF_PERICENTER = 234.9123
MEAN_ANOMALY   = 197.4076

EPHEMERIS_TYPE = 0
CLASSIFICATION_TYPE = U
NORAD_CAT_ID   = 15772
ELEMENT_SET_NO = 999
REV_AT_EPOCH   = 10460
BSTAR          = .10775E-3
MEAN_MOTION_DOT = .192E-5
MEAN_MOTION_DDOT = 0

CCSDS_OMM_VERS = 2.0
CREATION_DATE  = 
ORIGINATOR     = 

OBJECT_NAME    = SL-14 R/B
OBJECT_ID      = 1985-069B
CENTER_NAME    = EARTH
REF_FRAME      = TEME
TIME_SYSTEM    = UTC
MEAN_ELEMENT_THEORY = SGP/SGP4

EPOCH          = 2025-12-30T17:50:44.962080
MEAN_MOTION    = 14.86347270
ECCENTRICITY   = .0020134
INCLINATION    = 82.5272
RA_OF_ASC_NODE = 89.7781
ARG_OF_PERICENTER = 63.0718
MEAN_ANOMALY   = 297.2552

EPHEMERIS_TYPE = 0
CLASSIFICATION_TYPE = U
NORAD_CAT_ID   = 15945
ELEMENT_SET_NO = 999
REV_AT_EPOCH   = 16259
BSTAR          = .92359E-4
MEAN_MOTION_DOT = .841E-5
MEAN_MOTION_DDOT = 0

CCSDS_OMM_VERS = 2.0
CREATION_DATE  = 
ORIGINATOR     = 

OBJECT_NAME    = SL-16 R/B
OBJECT_ID      = 1985-097B
CENTER_NAME    = EARTH
REF_FRAME      = TEME
TIME_SYSTEM    = UTC
MEAN_ELEMENT_THEORY = SGP/SGP4

EPOCH          = 2025-12-30T18:40:28.199424
MEAN_MOTION    = 14.16586597
ECCENTRICITY   = .0007769
INCLINATION    = 71.0030
RA_OF_ASC_NODE = 285.6280
ARG_OF_PERICENTER = 343.6922
MEAN_ANOMALY   = 37.6695

EPHEMERIS_TYPE = 0
CLASSIFICATION_TYPE = U
NORAD_CAT_ID   = 16182
ELEMENT_SET_NO = 999
REV_AT_EPOCH   = 7747
BSTAR          = -.6362E-5
MEAN_MOTION_DOT = -.61E-6
MEAN_MOTION_DDOT = 0

CCSDS_OMM_VERS = 2.0
CREATION_DATE  = 
ORIGINATOR     = 

OBJECT_NAME    = SL-14 R/B
OBJECT_ID      = 1986-006B
CENTER_NAME    = EARTH
REF_FRAME      = TEME
TIME_SYSTEM    = UTC
MEAN_ELEMENT_THEORY = SGP/SGP4

EPOCH          = 2025-12-30T08:01:09.792768
MEAN_MOTION    = 14.86696429
ECCENTRICITY   = .00776726
INCLINATION    = 82.5278
RA_OF_ASC_NODE = 324.9960
ARG_OF_PERICENTER = 141.6441
MEAN_ANOMALY   = 219.0336

EPHEMERIS_TYPE = 0
CLASSIFICATION_TYPE = U
NORAD_CAT_ID   = 16496
ELEMENT_SET_NO = 999
REV_AT_EPOCH   = 13890
BSTAR          = .10577998E-3
MEAN_MOTION_DOT = .1021E-4
MEAN_MOTION_DDOT = 0

CCSDS_OMM_VERS = 2.0
CREATION_DATE  = 
ORIGINATOR     = 

OBJECT_NAME    = COSMOS 1743
OBJECT_ID      = 1986-034A
CENTER_NAME    = EARTH
REF_FRAME      = TEME
TIME_SYSTEM    = UTC
MEAN_ELEMENT_THEORY = SGP/SGP4

EPOCH          = 2025-12-30T10:36:37.493568
MEAN_MOTION    = 15.53277766
ECCENTRICITY   = .00051564
INCLINATION    = 82.5346
RA_OF_ASC_NODE = 146.1908
ARG_OF_PERICENTER = 181.5658
MEAN_ANOMALY   = 178.5580

EPHEMERIS_TYPE = 0
CLASSIFICATION_TYPE = U
NORAD_CAT_ID   = 16719
ELEMENT_SET_NO = 999
REV_AT_EPOCH   = 16948
BSTAR          = .68482633E-3
MEAN_MOTION_DOT = .43334E-3
MEAN_MOTION_DDOT = 0

