SL-3 R/B                
1 13403U 82079B   25364.80593060  .00008849  00000+0  36255-3 0  9990
2 13403  81.1475 274.3631 0026532  40.9445 319.3774 15.23826348367203
SL-14 R/B               
1 13553U 82092B   25364.65310825  .00000802  00000+0  87455-4 0  9990
2 13553  82.5668 205.9584 0020638 166.1915 257.9015 14.86574879318678
SL-3 R/B                
1 13819U 83010B   25364.72710571  .00020140  00000+0  43868-3 0  9992
2 13819  81.1049  86.6555 0016318 286.8117  73.1337 15.43998129347294
SL-3 R/B                
1 14208U 83075B   25364.76394000  .00016274  00000+0  45383-3 0  9992
2 14208  97.6108   1.8577 0024376 113.9532 246.4268 15.36539710319568
COSMOS 1536             
1 14699U 84013A   25364.55029175  .00010894  00000+0  46386-3 0  9990
2 14699  82.5446 176.4980 0014941 161.3947 198.7839 15.22752605262094
SL-14 R/B               
1 14820U 84027B   25364.80514242  .00000868  00000+0  96645-4 0  9997
2 14820  82.5427 309.6151 0017387 196.8224 163.2418 14.85896408237402
SL-8 R/B                
1 15483U 85006B   25364.57533777  .00000498  00000+0  17405-3 0  9994
2 15483  74.0458  28.3190 0019426 317.0995 160.5102 14.37733729144099
SL-12 R/B(2)            
1 15772U 85042D   25364.82732041  .00000192  00000+0  10775-3 0  9992
2 15772  71.1067 233.2093 0037112 234.9123 197.4076 14.21957526104603
SL-14 R/B               
1 15945U 85069B   25364.74357595  .00000841  00000+0  92359-4 0  9991
2 15945  82.5272  89.7781 0020134  63.0718 297.2552 14.86347270162594
SL-16 R/B               
1 16182U 85097B   25364.77810416 -.00000061  00000+0 -63620-5 0  9991
2 16182  71.0030 285.6280 0007769 343.6922  37.6695 14.16586597 77473
SL-14 R/B               
1 16496U 86006B   25364.33414112  .00001021  00000+0  10578-3 0  9992
2 16496  82.5278 324.9960 0077672 141.6441 219.0336 14.86696429138903
COSMOS 1743             
1 16719U 86034A   25364.44210062  .00043334  00000+0  68483-3 0  9992
2 16719  82.5346 146.1908 0005156 181.5658 178.5580 15.53277766169485
